[Satellite]
VERSION=1.1
NAME=Suomi 100
NICKNAME=Suomi 100
TLE1=1 43804U 18099AY  19311.16760207  .00000158  00000-0  19552-4 0  9990
TLE2=2 43804  97.7301  21.2670 0014479 212.1414 147.8925 14.95349510 50570
STATUS=0
